SL-8 R/B                
1 19257U 88053B   24279.54166501  .00001595  00000+0  53060-3 0  9996
2 19257  74.0502 350.8727 0021396 299.5918 161.7218 14.38373876901792
COSMOS 1975             
1 19573U 88093A   24279.47744713  .00021637  00000+0  10905-2 0  9999
2 19573  82.5209 275.5903 0014337 186.9492 173.1545 15.16954615940227
SL-14 R/B               
1 19574U 88093B   24279.46362024  .00002824  00000+0  32936-3 0  9996
2 19574  82.5338 170.0797 0020034 322.7419 210.1327 14.84761536923819
SL-16 R/B               
1 19650U 88102B   24279.44722338  .00000618  00000+0  33727-3 0  9996
2 19650  70.9995 166.0435 0012114  81.8060 278.4437 14.16018125853245
INTERCOSMOS 24          
1 20261U 89080A   24279.53797178  .00002233  00000+0  65270-3 0  9999
2 20261  82.6017  82.5324 1194077  58.8598 312.4108 12.58365669601347
SL-14 R/B               
1 20262U 89080C   24279.56129979  .00001149  00000+0  35111-3 0  9997
2 20262  82.5943 147.1273 1231778 293.3427  54.2845 12.49916437595158
DELTA 1 R/B             
1 20323U 89089B   24279.50188693  .00003413  00000+0  86653-3 0  9999
2 20323  97.1161 197.1052 0069152 325.8101  33.8653 14.49841610820337
ARIANE 40 R/B           
1 20443U 90005H   24279.16156864  .00002210  00000+0  72653-3 0  9998
2 20443  98.3824 342.3089 0009598 335.0359  25.0364 14.39194003818176
DELTA 2 R/B(1)          
1 20453U 90008B   24279.58584967  .00042347  00000+0  14086-2 0  9997
2 20453  35.6181 235.0345 0188729 266.2495  91.6631 15.14759897846247
COSMOS 2058             
1 20465U 90010A   24279.52987851  .00015833  00000+0  11038-2 0  9990
2 20465  82.4904 197.0782 0011272 295.5420  64.4641 15.05259724884926
SL-14 R/B               
1 20466U 90010B   24279.41856623  .00003150  00000+0  38633-3 0  9991
2 20466  82.5053  35.7328 0019337 210.6132 149.3956 14.82719327851363
SL-14 R/B               
1 20511U 90018B   24279.47949312  .00002260  00000+0  28606-3 0  9994
2 20511  82.5249 349.0819 0016586   8.4907 351.6584 14.81330956845547
HST                     
1 20580U 90037B   24279.52200659  .00018525  00000+0  82735-3 0  9995
2 20580  28.4699 324.8311 0003118 159.7466 200.3251 15.19946009694082
SL-16 R/B               
1 20625U 90046B   24279.52781750  .00000090  00000+0  70956-4 0  9992
2 20625  70.9997 310.2477 0014037   4.4489 355.6756 14.14884039774812
COSMOS 2084             
1 20663U 90055A   24279.40385146  .00010563  00000+0  76938-3 0  9991
2 20663  62.7910 304.1940 0098176 130.4071 230.5645 15.00398668858093
SL-6 R/B(2)             
1 20666U 90055D   24279.57001020  .00010193  00000+0  80171-3 0  9991
2 20666  62.7849 217.8595 0069096 154.9179 205.5302 14.99449938860079
SL-8 R/B                
1 20775U 90078B   24279.54632269  .00027601  00000+0  10546-2 0  9999
2 20775  82.9172 351.0837 0448244 295.7676  59.7918 14.65767250732461
SL-8 R/B                
1 21088U 91006B   24279.55248721  .00000352  00000+0  33842-3 0  9995
2 21088  82.9460 196.9555 0023810  53.8238 119.4396 13.77372060692469
OKEAN-3                 
1 21397U 91039A   24279.52020013  .00010036  00000+0  81033-3 0  9998
2 21397  82.5155 119.0858 0014586 300.9450  59.0340 14.99654598786920
COSMOS 2151             
1 21422U 91042A   24279.31630604  .00010397  00000+0  90438-3 0  9990
2 21422  82.4993 224.4023 0013932  25.2653 334.9248 14.96785892785255
SL-14 R/B               
1 21423U 91042B   24279.56336487  .00002173  00000+0  27665-3 0  9995
2 21423  82.4963 347.7011 0018059 145.9496 214.2880 14.81048101776069
ERS-1                   
1 21574U 91050A   24279.51699988  .00002201  00000+0  72734-3 0  9993
2 21574  98.7865 273.7597 0031402 306.2859  53.5428 14.38771385740912
ARIANE 40 R/B           
1 21610U 91050F   24279.41217920  .00002521  00000+0  77899-3 0  9997
2 21610  98.2779 338.1146 0002881 189.1739 170.9399 14.42140960743987
INTERCOSMOS 25          
1 21819U 91086A   24279.53224635  .00003190  00000+0  62786-3 0  9993
2 21819  82.5982 263.9245 1498723 156.2948 211.5218 12.09335755433737
SL-8 R/B                
1 21876U 92008B   24279.57130328  .00000349  00000+0  34269-3 0  9998
2 21876  82.9232 294.5452 0035587 145.5094 328.7087 13.75860906637892
SL-8 R/B                
1 21938U 92020B   24279.46703134  .00000329  00000+0  32644-3 0  9993
2 21938  82.9341 180.1193 0028262 312.2065 221.2559 13.75443890629618
USA 81                  
1 21949U 92023A   24279.51807697  .00001291  00000+0  47411-3 0  9990
2 21949  85.0047  71.4961 0001073 102.4317 257.6995 14.32016191 20337
COSMOS 2219             
1 22219U 92076A   24279.57112721  .00000357  00000+0  21272-3 0  9991
2 22219  71.0619  25.2409 0020467 274.1444  85.7339 14.13918823644851
SL-16 R/B               
1 22220U 92076B   24279.51792009  .00000617  00000+0  33210-3 0  9994
2 22220  71.0003 204.0015 0012597 178.2643 354.6983 14.16709568648157
COSMOS 2221             
1 22236U 92080A   24279.43347270  .00010277  00000+0  98938-3 0  9994
2 22236  82.5060  56.1628 0016102 134.7667 225.4867 14.92768678703079
SL-16 R/B               
1 22285U 92093B   24279.51575433  .00000626  00000+0  34597-3 0  9993
2 22285  71.0247  16.1489 0004109 349.1071  10.9962 14.15309900639557
COSMOS 2228             
1 22286U 92094A   24279.53523209  .00010891  00000+0  10319-2 0  9991
2 22286  82.5233  14.0425 0018234 249.5277 110.3986 14.93376284698317
SL-16 R/B               
1 22566U 93016B   24279.57647541  .00000178  00000+0  11622-3 0  9993
2 22566  71.0072 227.4783 0009212  21.5279 338.6229 14.15172523628586
COSMOS 2242             
1 22626U 93024A   24279.59687695  .00010073  00000+0  96525-3 0  9995
2 22626  82.5225  42.8952 0016264 251.4542 108.4912 14.92954534702680
SL-16 R/B               
1 22803U 93059B   24279.55351000  .00000677  00000+0  35940-3 0  9997
2 22803  70.9927  27.8839 0019480 281.4922  78.4014 14.17082426605840
ARIANE 40 R/B           
1 22830U 93061H   24279.17253224  .00001756  00000+0  66618-3 0  9992
2 22830  98.5605 345.4566 0011152  28.8613 331.3186 14.32309263619825
COSMOS 2278             
1 23087U 94023A   24279.46414371  .00000491  00000+0  28242-3 0  9996
2 23087  71.0547 183.3621 0006326 106.5455 253.6363 14.14171765571258
SL-16 R/B               
1 23088U 94023B   24279.54645160  .00000227  00000+0  14227-3 0  9993
2 23088  70.9990  83.1482 0003935 329.7172  30.3723 14.14893726572517
SL-16 R/B               
1 23343U 94074B   24279.38607111  .00003160  00000+0  44023-3 0  9995
2 23343  97.7757 318.6798 0008061 110.1736 260.5253 14.78412615610341
SL-16 R/B               
1 23405U 94077B   24279.51839337  .00000276  00000+0  16597-3 0  9999
2 23405  70.9854   6.7393 0004770 251.7372 108.3232 14.15434251542620
ARIANE 40+ R/B          
1 23561U 95021B   24279.46618642  .00002139  00000+0  70590-3 0  9993
2 23561  98.5167 345.2158 0005816 256.3935 114.4060 14.39093574544404
SL-16 R/B               
1 23705U 95058B   24279.50022842  .00000422  00000+0  24032-3 0  9992
2 23705  71.0224 192.3002 0013271 202.5847 157.4694 14.15382789494241
SL-16 R/B               
1 24298U 96051B   24279.49000582  .00000118  00000+0  90564-4 0  9995
2 24298  70.7925 195.7275 0015587 190.2489 169.8315 14.12455634448196
ORBVIEW 2 (SEASTAR)     
1 24883U 97037A   24279.34036903  .00002346  00000+0  84326-3 0  9993
2 24883  98.7922  61.0417 0002798 136.8770 223.2634 14.34788742433832
SL-16 R/B               
1 25400U 98043G   24279.57831119  .00000677  00000+0  30307-3 0  9999
2 25400  98.7534 220.4194 0011002  84.2998 275.9436 14.25827650364868
SL-16 R/B               
1 25407U 98045B   24279.48173650  .00000203  00000+0  12715-3 0  9995
2 25407  71.0118 195.4628 0005140 102.3378 257.8321 14.16051335353454
ISS (ZARYA)             
1 25544U 98067A   24279.46943132  .00032942  00000+0  59769-3 0  9994
2 25544  51.6363 129.1425 0009147  39.7917 320.3740 15.49242162475659
CZ-4B R/B               
1 25732U 99025C   24279.56405181  .00000657  00000+0  33928-3 0  9993
2 25732  98.7398 323.0671 0037808  40.5846  81.3168 14.18047788314441
OKEAN-O                 
1 25860U 99039A   24279.38292719  .00004193  00000+0  57564-3 0  9992
2 25860  98.0229 331.5268 0001071 115.9089 244.2232 14.78919133357441
SL-16 R/B               
1 25861U 99039B   24279.54609263  .00003831  00000+0  50634-3 0  9996
2 25861  98.0758 326.2899 0016055 139.0080 221.2341 14.80499244359869
DELTA 2 R/B             
1 25876U 99041E   24279.56535715  .00004848  00000+0  83051-3 0  9995
2 25876  51.7651 214.9594 0512741 256.0663  98.2752 14.09215193289611
HELIOS 1B               
1 25977U 99064A   24279.56813309  .00005351  00000+0  63408-3 0  9994
2 25977  98.2245 154.8484 0001148  34.2063 325.9224 14.84988886607990
TERRA                   
1 25994U 99068A   24279.51130046  .00003137  00000+0  66209-3 0  9994
2 25994  98.0360 339.7112 0002943  45.5720  66.9454 14.60055790319143
SL-16 R/B               
1 26070U 00006B   24279.57478596  .00000569  00000+0  31389-3 0  9992
2 26070  71.0002 111.3649 0018661 255.1825 104.7231 14.15685655274942
TITAN 4B R/B            
1 26474U 00047B   24279.55288278  .00013810  00000+0  98470-3 0  9996
2 26474  67.9933  57.2922 0051891 264.9002  94.6221 15.03634673314545
ENVISAT                 
1 27386U 02009A   24279.47977591  .00001127  00000+0  38109-3 0  9994
2 27386  98.2964 236.8082 0001303  89.3397  18.7855 14.38700222184366
IDEFIX & ARIANE 42P R/B 
1 27422U 02021B   24279.54606094  .00002222  00000+0  87120-3 0  9998
2 27422  98.5335 215.0611 0010746 281.4904  78.5072 14.30356992169641
AQUA                    
1 27424U 02022A   24279.61152961  .00006650  00000+0  13939-2 0  9993
2 27424  98.3418 229.4942 0002174  94.3584  15.5655 14.60025825192780
CZ-4B R/B               
1 27432U 02024C   24279.36958810  .00000492  00000+0  27689-3 0  9999
2 27432  98.9638 322.1666 0051052  59.6587 311.7802 14.14379828155686
